PERSEUS-M1              
1 40039U 14033AF  26139.06633964  .00001354  00000+0  12754-3 0  9999
2 40039  97.9635  82.7255 0012687  40.5346 319.6817 14.95525405646283
POLYITAN-1              
1 40042U 14033AJ  26138.80415234  .00011817  00000+0  38317-3 0  9990
2 40042  98.0962 162.3101 0005696 240.0236 120.0439 15.32154281649092
TIGRISAT                
1 40043U 14033AK  26138.40243643  .00001375  00000+0  16395-3 0  9990
2 40043  97.7798 289.1062 0049725 170.8027 189.4111 14.85021879641203
AEROCUBE 6A             
1 40045U 14033AM  26138.89864720  .00003543  00000+0  30208-3 0  9998
2 40045  97.7224 306.1714 0040146 112.7205 247.8268 14.97756867642235
AEROCUBE 6B             
1 40046U 14033AN  26139.19625686  .00003816  00000+0  31360-3 0  9992
2 40046  97.7178 306.1952 0038576 105.0547 255.4949 14.99179016642414
CANX-4                  
1 40055U 14034C   26139.17212697  .00000541  00000+0  76736-4 0  9994
2 40055  98.3158  13.4156 0014103 103.0014 257.2773 14.81204639640234
CANX-5                  
1 40056U 14034D   26139.10334248  .00000584  00000+0  82201-4 0  9996
2 40056  98.3161  13.3861 0014090 103.3863 256.8920 14.81221868631031
UKUBE-1                 
1 40074U 14037F   26138.94234480  .00005679  00000+0  32578-3 0  9998
2 40074  98.4241 139.1552 0000398 132.8085 227.3177 15.13034237644134
BRITE-PL2 (HEWELIUSZ)   
1 40119U 14049B   26139.04828955  .00001446  00000+0  13932-3 0  9990
2 40119  97.9066 250.8315 0013633 200.8084 159.2583 14.94470735637098
AEROCUBE 5C             
1 40965U 15058B   26139.20235027  .00001881  00000+0  17572-3 0  9997
2 40965  64.7681 352.7496 0129933  74.6674 286.8754 14.91274358361335
AEROCUBE 7              
1 40966U 15058C   26138.81279768  .00002909  00000+0  24126-3 0  9999
2 40966  64.7625 336.8066 0119688  73.4969 287.9256 14.95480192361563
FOX-1A (AO-85)          
1 40967U 15058D   26138.63672456  .00002064  00000+0  19406-3 0  9998
2 40967  64.7765  10.8054 0129201  68.1875 293.2924 14.90780838109167
SINOD-D 1               
1 40968U 15058E   26139.19543948  .00002718  00000+0  22633-3 0  9996
2 40968  64.7760 349.6876 0117746  64.7204 296.6056 14.95660609112320
SNAP-3 ALICE            
1 40970U 15058G   26139.20245433  .00054561  00000+0  81458-3 0  9992
2 40970  64.7514 203.6263 0033408  26.7954 333.4905 15.54070642112377
LMRST-SAT               
1 40971U 15058H   26139.05426574  .00002210  00000+0  20778-3 0  9995
2 40971  64.7770   5.7913 0130979  70.0469 291.4696 14.90409081109210
SNAP-3 EDDIE            
1 40972U 15058J   26138.57162064  .00047515  00000+0  68228-3 0  9992
2 40972  64.7433 196.7243 0033654  30.9859 329.3260 15.55164174114413
PROPCUBE 3              
1 40973U 15058K   26138.82636512  .00002654  00000+0  22814-3 0  9991
2 40973  64.7689 344.2560 0123087  71.6205 289.8247 14.94042196110418
BISONSAT                
1 40974U 15058L   26139.07109322  .00007625  00000+0  37996-3 0  9994
2 40974  64.7603 267.7273 0078616  59.5998 301.2866 15.15557937111208
SNAP-3 JIMI             
1 40975U 15058M   26138.89593325  .00003981  00000+0  28176-3 0  9995
2 40975  64.7649 312.4251 0105068  67.5350 293.6852 15.01978122109828
PROPCUBE 1 (FLORA)      
1 40976U 15058N   26138.98239685  .00002061  00000+0  20240-3 0  9994
2 40976  64.7760  25.7378 0129771  72.3574 289.1659 14.89040113111919
SINOD-D 3               
1 40977U 15058P   26138.91998405  .00002892  00000+0  25181-3 0  9991
2 40977  64.7735   7.1960 0118241  69.8344 291.5442 14.93773336110381
HORYU-4                 
1 41340U 16012D   26139.12551846  .00150174  00000+0  76965-3 0  9998
2 41340  30.9885 289.5778 0004568  77.6854 282.4315 15.79713853566194
RAVAN                   
1 41849U 16067B   26139.18131874  .00029159  00000+0  48839-3 0  9990
2 41849  97.9931  25.4675 0007191 103.4284 256.7768 15.51799638523190
CELTEE 1                
1 41850U 16067C   26138.83734240  .00003660  00000+0  17676-3 0  9993
2 41850  98.0706   3.4044 0001513  56.9062 303.2316 15.19364275521428
OPTICUBE 04             
1 41851U 16067D   26139.11286743  .00001376  00000+0  90095-4 0  9995
2 41851  98.0726 349.8781 0014861 211.7232 148.3101 15.09523195520781
AEROCUBE 8D             
1 41852U 16067E   26139.13795149  .00004294  00000+0  18093-3 0  9992
2 41852  98.0715   7.1041 0002332 213.3170 146.7918 15.23949269521646
AEROCUBE 8C             
1 41853U 16067F   26139.16758410  .00004664  00000+0  19476-3 0  9993
2 41853  98.0585   4.4015 0006056 147.5137 212.6472 15.24188834521643
CORVUS BC2              
1 42846U 17042X   26138.89717476  .00001600  00000+0  11345-3 0  9990
2 42846  97.4040 301.3956 0012378 205.2843 154.7781 15.06088173482659
CORVUS BC1              
1 42847U 17042Y   26138.89511313  .00001525  00000+0  10786-3 0  9997
2 42847  97.4070 302.1884 0011907 180.9014 179.2195 15.06258703482680
MAKERSAT 0              
1 43016U 17073D   26138.90850184  .00016695  00000+0  46599-3 0  9999
2 43016  97.4663  21.2218 0110587  18.3053 342.2118 15.30778554461983
